0 SL-8 R/B
1 03230U 68040B   13282.08172654  .00001190  00000-0  13702-3 0   511
2 03230 074.0387 054.0508 0032780 002.2549 357.8771 14.86641869435028
0 SL-8 R/B
1 03230U 68040B   13283.42760475  .00001108  00000-0  12783-3 0   522
2 03230 074.0390 051.3722 0032827 359.2166 000.8956 14.86647107435225
0 SL-8 R/B
1 03230U 68040B   13284.50430364  .00001194  00000-0  13740-3 0   533
2 03230 074.0392 049.2294 0032888 356.8180 003.2784 14.86648987435383
0 SL-8 R/B
1 03230U 68040B   13285.78288099  .00001159  00000-0  13347-3 0   545
2 03230 074.0395 046.6847 0032982 353.9634 006.1143 14.86651303435576
0 SL-8 R/B
1 03230U 68040B   13286.79228238  .00001286  00000-0  14766-3 0   554
2 03230 074.0396 044.6758 0033045 351.6998 008.3630 14.86653351435722
0 SL-8 R/B
1 03230U 68040B   13288.07085524  .00001937  00000-0  22018-3 0   569
2 03230 074.0398 042.1315 0033119 348.8758 011.1685 14.86660214435919
0 SL-8 R/B
1 03230U 68040B   13289.48400882  .00001393  00000-0  15948-3 0   574
2 03230 074.0398 039.3193 0033182 345.7324 014.2915 14.86665972436126
0 SL-8 R/B
1 03230U 68040B   13290.76257234  .00001554  00000-0  17745-3 0   585
2 03230 074.0397 036.7748 0033261 342.8980 017.1076 14.86669710436311
0 SL-8 R/B
1 03230U 68040B   13291.77196114  .00001569  00000-0  17904-3 0   590
2 03230 074.0396 034.7662 0033314 340.6711 019.3202 14.86671710436464
0 SL-8 R/B
1 03230U 68040B   13292.78134800  .00001736  00000-0  19766-3 0   602
2 03230 074.0395 032.7575 0033369 338.4573 021.5200 14.86674658436619
0 SL-8 R/B
1 03230U 68040B   13293.79073347  .00001721  00000-0  19602-3 0   616
2 03230 074.0394 030.7487 0033435 336.2192 023.7441 14.86678344436768
0 SL-8 R/B
1 03230U 68040B   13294.80011689  .00001701  00000-0  19371-3 0   622
2 03230 074.0395 028.7399 0033477 333.9883 025.9612 14.86682753436915
0 SL-8 R/B
1 03230U 68040B   13295.80949702  .00001747  00000-0  19879-3 0   633
2 03230 074.0395 026.7311 0033509 331.7693 028.1669 14.86685519437065
